{"fetched_at":"2026-03-29T16:36:15Z","count":15609,"tles":[{"name":"STARLINK-32728","line1":"1 62948U 25029A   26087.84633512  .00015300  00000+0  52752-3 0  9994","line2":"2 62948  53.1582 141.1280 0001295  78.2823 281.8323 15.30206314 64326","category":"Starlink"}]}